{
  "type": "FeatureCollection",
  "features": [
    {
      "type": "Feature",
      "properties": {
        "norad_id": 34056,
        "name": "COSMOS 2251 DEB",
        "group": "cosmos-2251-debris",
        "lat": 29.08219817821581,
        "lon": 75.08540816832374,
        "alt_km": 807.8092342928439,
        "timestamp": "2025-12-18T13:51:50.079581+00:00",
        "meta_object_name": "COSMOS 2251 DEB",
        "meta_object_id": "1993-036JT",
        "meta_epoch": "2025-12-18T07:14:52.730016",
        "meta_mean_motion": 14.20576873,
        "meta_eccentricity": 0.01237929,
        "meta_inclination": 74.0597,
        "meta_ra_of_asc_node": 66.4317,
        "meta_arg_of_pericenter": 112.7995,
        "meta_mean_anomaly": 309.8568,
        "meta_ephemeris_type": 0,
        "meta_classification_type": "U",
        "meta_norad_cat_id": 34056,
        "meta_element_set_no": 999,
        "meta_rev_at_epoch": 86490,
        "meta_bstar": 0.00051272024,
        "meta_mean_motion_dot": 1.167e-05,
        "meta_mean_motion_ddot": 0,
        "tle_line1": "1 34056U 93036JT  25352.30199919  .00001167  00000+0  51272-3 0  9991",
        "tle_line2": "2 34056  74.0597  66.4317 0123792 112.7995 309.8568 14.20576873864906"
      },
      "geometry": {
        "type": "Point",
        "coordinates": [
          75.08540816832374,
          29.08219817821581
        ]
      }
    },
    {
      "type": "Feature",
      "properties": {
        "norad_id": 34058,
        "name": "COSMOS 2251 DEB",
        "group": "cosmos-2251-debris",
        "lat": -73.66228360981877,
        "lon": 89.16263054577345,
        "alt_km": 1144.2076574616858,
        "timestamp": "2025-12-18T13:51:50.079592+00:00",
        "meta_object_name": "COSMOS 2251 DEB",
        "meta_object_id": "1993-036JV",
        "meta_epoch": "2025-12-18T06:20:26.118816",
        "meta_mean_motion": 13.56084676,
        "meta_eccentricity": 0.03777069,
        "meta_inclination": 73.9314,
        "meta_ra_of_asc_node": 169.1578,
        "meta_arg_of_pericenter": 163.3462,
        "meta_mean_anomaly": 15.7282,
        "meta_ephemeris_type": 0,
        "meta_classification_type": "U",
        "meta_norad_cat_id": 34058,
        "meta_element_set_no": 999,
        "meta_rev_at_epoch": 83217,
        "meta_bstar": 0.00060285352,
        "meta_mean_motion_dot": 6.48e-06,
        "meta_mean_motion_ddot": 0,
        "tle_line1": "1 34058U 93036JV  25352.26419119  .00000648  00000+0  60285-3 0  9992",
        "tle_line2": "2 34058  73.9314 169.1578 0377706 163.3462  15.7282 13.56084676832173"
      },
      "geometry": {
        "type": "Point",
        "coordinates": [
          89.16263054577345,
          -73.66228360981877
        ]
      }
    },
    {
      "type": "Feature",
      "properties": {
        "norad_id": 34059,
        "name": "COSMOS 2251 DEB",
        "group": "cosmos-2251-debris",
        "lat": 3.7031707769532867,
        "lon": 176.32484760163553,
        "alt_km": 722.971165808568,
        "timestamp": "2025-12-18T13:51:50.079602+00:00",
        "meta_object_name": "COSMOS 2251 DEB",
        "meta_object_id": "1993-036JW",
        "meta_epoch": "2025-12-18T06:23:56.937408",
        "meta_mean_motion": 14.52979211,
        "meta_eccentricity": 0.00185133,
        "meta_inclination": 74.0365,
        "meta_ra_of_asc_node": 175.8499,
        "meta_arg_of_pericenter": 252.6014,
        "meta_mean_anomaly": 284.9113,
        "meta_ephemeris_type": 0,
        "meta_classification_type": "U",
        "meta_norad_cat_id": 34059,
        "meta_element_set_no": 999,
        "meta_rev_at_epoch": 88539,
        "meta_bstar": 0.00061042159,
        "meta_mean_motion_dot": 2.496e-05,
        "meta_mean_motion_ddot": 0,
        "tle_line1": "1 34059U 93036JW  25352.26663122  .00002496  00000+0  61042-3 0  9993",
        "tle_line2": "2 34059  74.0365 175.8499 0018513 252.6014 284.9113 14.52979211885391"
      },
      "geometry": {
        "type": "Point",
        "coordinates": [
          176.32484760163553,
          3.7031707769532867
        ]
      }
    },
    {
      "type": "Feature",
      "properties": {
        "norad_id": 34061,
        "name": "COSMOS 2251 DEB",
        "group": "cosmos-2251-debris",
        "lat": 73.63512867197845,
        "lon": -30.341363736154573,
        "alt_km": 756.7492371994849,
        "timestamp": "2025-12-18T13:51:50.079627+00:00",
        "meta_object_name": "COSMOS 2251 DEB",
        "meta_object_id": "1993-036JY",
        "meta_epoch": "2025-12-18T04:09:38.348928",
        "meta_mean_motion": 14.4036895,
        "meta_eccentricity": 0.0020709,
        "meta_inclination": 74.0391,
        "meta_ra_of_asc_node": 253.3457,
        "meta_arg_of_pericenter": 329.4311,
        "meta_mean_anomaly": 181.1534,
        "meta_ephemeris_type": 0,
        "meta_classification_type": "U",
        "meta_norad_cat_id": 34061,
        "meta_element_set_no": 999,
        "meta_rev_at_epoch": 88258,
        "meta_bstar": 0.00025183972,
        "meta_mean_motion_dot": 7.75e-06,
        "meta_mean_motion_ddot": 0,
        "tle_line1": "1 34061U 93036JY  25352.17336052  .00000775  00000+0  25184-3 0  9990",
        "tle_line2": "2 34061  74.0391 253.3457 0020709 329.4311 181.1534 14.40368950882584"
      },
      "geometry": {
        "type": "Point",
        "coordinates": [
          -30.341363736154573,
          73.63512867197845
        ]
      }
    },
    {
      "type": "Feature",
      "properties": {
        "norad_id": 34062,
        "name": "COSMOS 2251 DEB",
        "group": "cosmos-2251-debris",
        "lat": -61.368715960381344,
        "lon": 94.90753792009748,
        "alt_km": 639.0082995628054,
        "timestamp": "2025-12-18T13:51:50.079639+00:00",
        "meta_object_name": "COSMOS 2251 DEB",
        "meta_object_id": "1993-036JZ",
        "meta_epoch": "2025-12-17T19:16:07.402944",
        "meta_mean_motion": 14.78863694,
        "meta_eccentricity": 0.00740187,
        "meta_inclination": 74.0273,
        "meta_ra_of_asc_node": 128.0762,
        "meta_arg_of_pericenter": 206.1338,
        "meta_mean_anomaly": 283.8729,
        "meta_ephemeris_type": 0,
        "meta_classification_type": "U",
        "meta_norad_cat_id": 34062,
        "meta_element_set_no": 999,
        "meta_rev_at_epoch": 88670,
        "meta_bstar": 0.0020750576,
        "meta_mean_motion_dot": 0.00016006,
        "meta_mean_motion_ddot": 0,
        "tle_line1": "1 34062U 93036JZ  25351.80286346  .00016006  00000+0  20751-2 0  9998",
        "tle_line2": "2 34062  74.0273 128.0762 0074018 206.1338 283.8729 14.78863694886703"
      },
      "geometry": {
        "type": "Point",
        "coordinates": [
          94.90753792009748,
          -61.368715960381344
        ]
      }
    },
    {
      "type": "Feature",
      "properties": {
        "norad_id": 34064,
        "name": "COSMOS 2251 DEB",
        "group": "cosmos-2251-debris",
        "lat": 70.31280874529332,
        "lon": 26.89029108297486,
        "alt_km": 754.960357380769,
        "timestamp": "2025-12-18T13:51:50.079650+00:00",
        "meta_object_name": "COSMOS 2251 DEB",
        "meta_object_id": "1993-036KB",
        "meta_epoch": "2025-12-18T03:59:05.298720",
        "meta_mean_motion": 14.42356699,
        "meta_eccentricity": 0.00222838,
        "meta_inclination": 74.0332,
        "meta_ra_of_asc_node": 260.801,
        "meta_arg_of_pericenter": 326.5572,
        "meta_mean_anomaly": 158.3853,
        "meta_ephemeris_type": 0,
        "meta_classification_type": "U",
        "meta_norad_cat_id": 34064,
        "meta_element_set_no": 999,
        "meta_rev_at_epoch": 88220,
        "meta_bstar": 0.00038718208,
        "meta_mean_motion_dot": 1.257e-05,
        "meta_mean_motion_ddot": 0,
        "tle_line1": "1 34064U 93036KB  25352.16603355  .00001257  00000+0  38718-3 0  9998",
        "tle_line2": "2 34064  74.0332 260.8010 0022283 326.5572 158.3853 14.42356699882204"
      },
      "geometry": {
        "type": "Point",
        "coordinates": [
          26.89029108297486,
          70.31280874529332
        ]
      }
    },
    {
      "type": "Feature",
      "properties": {
        "norad_id": 34065,
        "name": "COSMOS 2251 DEB",
        "group": "cosmos-2251-debris",
        "lat": 23.772549025485553,
        "lon": -105.3879580455003,
        "alt_km": 755.0448495647115,
        "timestamp": "2025-12-18T13:51:50.079660+00:00",
        "meta_object_name": "COSMOS 2251 DEB",
        "meta_object_id": "1993-036KC",
        "meta_epoch": "2025-12-18T04:26:46.348224",
        "meta_mean_motion": 14.3806851,
        "meta_eccentricity": 0.00166002,
        "meta_inclination": 74.0354,
        "meta_ra_of_asc_node": 248.0907,
        "meta_arg_of_pericenter": 344.565,
        "meta_mean_anomaly": 169.5236,
        "meta_ephemeris_type": 0,
        "meta_classification_type": "U",
        "meta_norad_cat_id": 34065,
        "meta_element_set_no": 999,
        "meta_rev_at_epoch": 88283,
        "meta_bstar": 0.00013241747,
        "meta_mean_motion_dot": 3.75e-06,
        "meta_mean_motion_ddot": 0,
        "tle_line1": "1 34065U 93036KC  25352.18525866  .00000375  00000+0  13242-3 0  9996",
        "tle_line2": "2 34065  74.0354 248.0907 0016600 344.5650 169.5236 14.38068510882830"
      },
      "geometry": {
        "type": "Point",
        "coordinates": [
          -105.3879580455003,
          23.772549025485553
        ]
      }
    }
  ]
}